CTC1_L_00124001-01
1 70182U 22398WO  26037.47802083  .00000000  00000+0  00000-0 0  9991
2 70182  70.0000   0.0000 0000000   0.0000   0.0000 14.24551582    15
CTC1_L_00124001-02
1 70183U 24088RN  26037.47802083  .00000000  00000+0  00000-0 0  9990
2 70183  70.0000   0.0000 0000000   0.0000  90.0000 14.24551582    15
CTC1_L_00124001-03
1 70184U 24690TH  26037.47802083  .00000000  00000+0  00000-0 0  9990
2 70184  70.0000   0.0000 0000000   0.0000 180.0000 14.24551582    16
CTC1_L_00124001-04
1 70185U 23343AA  26037.47802083  .00000000  00000+0  00000-0 0  9995
2 70185  70.0000   0.0000 0000000   0.0000 270.0000 14.24551582    17
CTC1_L_00124002-01
1 70186U 25526KZ  26037.47802083  .00000000  00000+0  00000-0 0  9991
2 70186  70.0000  12.0000 0000000   0.0000  12.0000 14.24551582    15
CTC1_L_00124002-02
1 70187U 22944OR  26037.47802083  .00000000  00000+0  00000-0 0  9993
2 70187  70.0000  12.0000 0000000   0.0000 102.0000 14.24551582    16
CTC1_L_00124002-03
1 70188U 25160MZ  26037.47802083  .00000000  00000+0  00000-0 0  9997
2 70188  70.0000  12.0000 0000000   0.0000 192.0000 14.24551582    16
CTC1_L_00124002-04
1 70189U 25054UP  26037.47802083  .00000000  00000+0  00000-0 0  9990
2 70189  70.0000  12.0000 0000000   0.0000 282.0000 14.24551582    17
CTC1_L_00124003-01
1 70190U 25993EK  26037.47802083  .00000000  00000+0  00000-0 0  9994
2 70190  70.0000  24.0000 0000000   0.0000  24.0000 14.24551582    16
CTC1_L_00124003-02
1 70191U 26588ZS  26037.47802083  .00000000  00000+0  00000-0 0  9996
2 70191  70.0000  24.0000 0000000   0.0000 114.0000 14.24551582    17
CTC1_L_00124003-03
1 70192U 26172BL  26037.47802083  .00000000  00000+0  00000-0 0  9996
2 70192  70.0000  24.0000 0000000   0.0000 204.0000 14.24551582    18
CTC1_L_00124003-04
1 70193U 22284JD  26037.47802083  .00000000  00000+0  00000-0 0  9997
2 70193  70.0000  24.0000 0000000   0.0000 294.0000 14.24551582    18
CTC1_L_00124004-01
1 70194U 25409NZ  26037.47802083  .00000000  00000+0  00000-0 0  9990
2 70194  70.0000  36.0000 0000000   0.0000  36.0000 14.24551582    16
CTC1_L_00124004-02
1 70195U 23996EH  26037.47802083  .00000000  00000+0  00000-0 0  9990
2 70195  70.0000  36.0000 0000000   0.0000 126.0000 14.24551582    17
CTC1_L_00124004-03
1 70196U 25315FI  26037.47802083  .00000000  00000+0  00000-0 0  9998
2 70196  70.0000  36.0000 0000000   0.0000 216.0000 14.24551582    18
CTC1_L_00124004-04
1 70197U 23099BE  26037.47802083  .00000000  00000+0  00000-0 0  9996
2 70197  70.0000  36.0000 0000000   0.0000 306.0000 14.24551582    19
CTC1_L_00124005-01
1 70198U 25096OT  26037.47802083  .00000000  00000+0  00000-0 0  9996
2 70198  70.0000  48.0000 0000000   0.0000  48.0000 14.24551582    16
CTC1_L_00124005-02
1 70199U 23610DS  26037.47802083  .00000000  00000+0  00000-0 0  9997
2 70199  70.0000  48.0000 0000000   0.0000 138.0000 14.24551582    17
CTC1_L_00124005-03
1 70200U 25885BS  26037.47802083  .00000000  00000+0  00000-0 0  9996
2 70200  70.0000  48.0000 0000000   0.0000 228.0000 14.24551582    10
CTC1_L_00124005-04
1 70201U 25878PG  26037.47802083  .00000000  00000+0  00000-0 0  9999
2 70201  70.0000  48.0000 0000000   0.0000 318.0000 14.24551582    11
CTC1_L_00124006-01
1 70202U 24799HM  26037.47802083  .00000000  00000+0  00000-0 0  9991
2 70202  70.0000  60.0000 0000000   0.0000  60.0000 14.24551582    10
CTC1_L_00124006-02
1 70203U 26107MP  26037.47802083  .00000000  00000+0  00000-0 0  9997
2 70203  70.0000  60.0000 0000000   0.0000 150.0000 14.24551582    11
CTC1_L_00124006-03
1 70204U 22467YL  26037.47802083  .00000000  00000+0  00000-0 0  9993
2 70204  70.0000  60.0000 0000000   0.0000 240.0000 14.24551582    12
CTC1_L_00124006-04
1 70205U 22193SM  26037.47802083  .00000000  00000+0  00000-0 0  9990
2 70205  70.0000  60.0000 0000000   0.0000 330.0000 14.24551582    13
CTC1_L_00124007-01
1 70206U 26413XI  26037.47802083  .00000000  00000+0  00000-0 0  9990
2 70206  70.0000  72.0000 0000000   0.0000  72.0000 14.24551582    10
CTC1_L_00124007-02
1 70207U 22996IZ  26037.47802083  .00000000  00000+0  00000-0 0  9993
2 70207  70.0000  72.0000 0000000   0.0000 162.0000 14.24551582    11
CTC1_L_00124007-03
1 70208U 26701HL  26037.47802083  .00000000  00000+0  00000-0 0  9992
2 70208  70.0000  72.0000 0000000   0.0000 252.0000 14.24551582    12
CTC1_L_00124007-04
1 70209U 26838QU  26037.47802083  .00000000  00000+0  00000-0 0  9994
2 70209  70.0000  72.0000 0000000   0.0000 342.0000 14.24551582    13
CTC1_L_00124008-01
1 70210U 26331XU  26037.47802083  .00000000  00000+0  00000-0 0  9994
2 70210  70.0000  84.0000 0000000   0.0000  84.0000 14.24551582    11
CTC1_L_00124008-02
1 70211U 22363RV  26037.47802083  .00000000  00000+0  00000-0 0  9996
2 70211  70.0000  84.0000 0000000   0.0000 174.0000 14.24551582    12
CTC1_L_00124008-03
1 70212U 24246BD  26037.47802083  .00000000  00000+0  00000-0 0  9999
2 70212  70.0000  84.0000 0000000   0.0000 264.0000 14.24551582    13
CTC1_L_00124008-04
1 70213U 25582P   26037.47802083  .00000000  00000+0  00000-0 0  9994
2 70213  70.0000  84.0000 0000000   0.0000 354.0000 14.24551582    14
CTC1_L_00124009-01
1 70214U 24980AQ  26037.47802083  .00000000  00000+0  00000-0 0  9996
2 70214  70.0000  96.0000 0000000   0.0000  96.0000 14.24551582    11
CTC1_L_00124009-02
1 70215U 25121EL  26037.47802083  .00000000  00000+0  00000-0 0  9995
2 70215  70.0000  96.0000 0000000   0.0000 186.0000 14.24551582    12
CTC1_L_00124009-03
1 70216U 26547WA  26037.47802083  .00000000  00000+0  00000-0 0  9999
2 70216  70.0000  96.0000 0000000   0.0000 276.0000 14.24551582    13
CTC1_L_00124009-04
1 70217U 26966CQ  26037.47802083  .00000000  00000+0  00000-0 0  9995
2 70217  70.0000  96.0000 0000000   0.0000   6.0000 14.24551582    15
CTC1_L_00124010-01
1 70218U 26433GZ  26037.47802083  .00000000  00000+0  00000-0 0  9995
2 70218  70.0000 108.0000 0000000   0.0000 108.0000 14.24551582    13
CTC1_L_00124010-02
1 70219U 24632UX  26037.47802083  .00000000  00000+0  00000-0 0  9995
2 70219  70.0000 108.0000 0000000   0.0000 198.0000 14.24551582    13
CTC1_L_00124010-03
1 70220U 24896ME  26037.47802083  .00000000  00000+0  00000-0 0  9999
2 70220  70.0000 108.0000 0000000   0.0000 288.0000 14.24551582    15
CTC1_L_00124010-04
1 70221U 23075NY  26037.47802083  .00000000  00000+0  00000-0 0  9998
2 70221  70.0000 108.0000 0000000   0.0000  18.0000 14.24551582    17
CTC1_L_00124011-01
1 70222U 26018DS  26037.47802083  .00000000  00000+0  00000-0 0  9999
2 70222  70.0000 120.0000 0000000   0.0000 120.0000 14.24551582    16
CTC1_L_00124011-02
1 70223U 26760ZJ  26037.47802083  .00000000  00000+0  00000-0 0  9994
2 70223  70.0000 120.0000 0000000   0.0000 210.0000 14.24551582    17
CTC1_L_00124011-03
1 70224U 25437TS  26037.47802083  .00000000  00000+0  00000-0 0  9995
2 70224  70.0000 120.0000 0000000   0.0000 300.0000 14.24551582    18
CTC1_L_00124011-04
1 70225U 24622EO  26037.47802083  .00000000  00000+0  00000-0 0  9991
2 70225  70.0000 120.0000 0000000   0.0000  30.0000 14.24551582    19
CTC1_L_00124012-01
1 70226U 25529TH  26037.47802083  .00000000  00000+0  00000-0 0  9999
2 70226  70.0000 132.0000 0000000   0.0000 132.0000 14.24551582    16
CTC1_L_00124012-02
1 70227U 24514IS  26037.47802083  .00000000  00000+0  00000-0 0  9993
2 70227  70.0000 132.0000 0000000   0.0000 222.0000 14.24551582    17
CTC1_L_00124012-03
1 70228U 22835GY  26037.47802083  .00000000  00000+0  00000-0 0  9998
2 70228  70.0000 132.0000 0000000   0.0000 312.0000 14.24551582    18
CTC1_L_00124012-04
1 70229U 23939NE  26037.47802083  .00000000  00000+0  00000-0 0  9995
2 70229  70.0000 132.0000 0000000   0.0000  42.0000 14.24551582    19
CTC1_L_00124013-01
1 70230U 22663DG  26037.47802083  .00000000  00000+0  00000-0 0  9990
2 70230  70.0000 144.0000 0000000   0.0000 144.0000 14.24551582    17
CTC1_L_00124013-02
1 70231U 22982YL  26037.47802083  .00000000  00000+0  00000-0 0  9995
2 70231  70.0000 144.0000 0000000   0.0000 234.0000 14.24551582    18
CTC1_L_00124013-03
1 70232U 25506MF  26037.47802083  .00000000  00000+0  00000-0 0  9991
2 70232  70.0000 144.0000 0000000   0.0000 324.0000 14.24551582    19
CTC1_L_00124013-04
1 70233U 23969YU  26037.47802083  .00000000  00000+0  00000-0 0  9993
2 70233  70.0000 144.0000 0000000   0.0000  54.0000 14.24551582    10
CTC1_L_00124014-01
1 70234U 23675BF  26037.47802083  .00000000  00000+0  00000-0 0  9998
2 70234  70.0000 156.0000 0000000   0.0000 156.0000 14.24551582    17
CTC1_L_00124014-02
1 70235U 26483FP  26037.47802083  .00000000  00000+0  00000-0 0  9999
2 70235  70.0000 156.0000 0000000   0.0000 246.0000 14.24551582    18
CTC1_L_00124014-03
1 70236U 24646BS  26037.47802083  .00000000  00000+0  00000-0 0  9999
2 70236  70.0000 156.0000 0000000   0.0000 336.0000 14.24551582    19
CTC1_L_00124014-04
1 70237U 26505LM  26037.47802083  .00000000  00000+0  00000-0 0  9996
2 70237  70.0000 156.0000 0000000   0.0000  66.0000 14.24551582    10
CTC1_L_00124015-01
1 70238U 23943SQ  26037.47802083  .00000000  00000+0  00000-0 0  9990
2 70238  70.0000 168.0000 0000000   0.0000 168.0000 14.24551582    17
CTC1_L_00124015-02
1 70239U 25325UE  26037.47802083  .00000000  00000+0  00000-0 0  9997
2 70239  70.0000 168.0000 0000000   0.0000 258.0000 14.24551582    18
CTC1_L_00124015-03
1 70240U 22973JA  26037.47802083  .00000000  00000+0  00000-0 0  9995
2 70240  70.0000 168.0000 0000000   0.0000 348.0000 14.24551582    10
CTC1_L_00124015-04
1 70241U 22957CU  26037.47802083  .00000000  00000+0  00000-0 0  9998
2 70241  70.0000 168.0000 0000000   0.0000  78.0000 14.24551582    11
CTC1_L_00124016-01
1 70242U 23284IU  26037.47802083  .00000000  00000+0  00000-0 0  9993
2 70242  70.0000 180.0000 0000000   0.0000 180.0000 14.24551582    10
CTC1_L_00124016-02
1 70243U 24956UP  26037.47802083  .00000000  00000+0  00000-0 0  9991
2 70243  70.0000 180.0000 0000000   0.0000 270.0000 14.24551582    11
